FENGYUN 1C DEB          
1 38147U 99025EQU 17345.90541450  .00000261  00000-0  14775-3 0  9992
2 38147  98.8309  16.3897 0054268  76.4291 284.2921 14.17657634189303
